[{"OBJECT_NAME":"FENGYUN 3F","OBJECT_ID":"2023-111A","EPOCH":"2026-03-09T23:16:34.953600","MEAN_MOTION":14.19919562,"ECCENTRICITY":0.00012463,"INCLINATION":98.6928,"RA_OF_ASC_NODE":140.7948,"ARG_OF_PERICENTER":79.4466,"MEAN_ANOMALY":280.6851,"EPHEMERIS_TYPE":0,"CLASSIFICATION_TYPE":"U","NORAD_CAT_ID":57490,"ELEMENT_SET_NO":999,"REV_AT_EPOCH":13478,"BSTAR":6.0252393e-5,"MEAN_MOTION_DOT":8.4e-7,"MEAN_MOTION_DDOT":0},{"OBJECT_NAME":"CZ-6A DEB","OBJECT_ID":"2022-151LL","EPOCH":"2026-03-09T22:59:20.683392","MEAN_MOTION":14.08258145,"ECCENTRICITY":0.00585639,"INCLINATION":98.8455,"RA_OF_ASC_NODE":65.9832,"ARG_OF_PERICENTER":285.425,"MEAN_ANOMALY":74.0455,"EPHEMERIS_TYPE":0,"CLASSIFICATION_TYPE":"U","NORAD_CAT_ID":54560,"ELEMENT_SET_NO":999,"REV_AT_EPOCH":17048,"BSTAR":0.00019356162,"MEAN_MOTION_DOT":2.92e-6,"MEAN_MOTION_DDOT":0}]
